[{"OBJECT_NAME":"STARLINK-31727","OBJECT_ID":"2024-082H","EPOCH":"2026-03-08T14:51:33.683040","MEAN_MOTION":15.27561531,"ECCENTRICITY":0.00010985,"INCLINATION":43.0027,"RA_OF_ASC_NODE":146.244,"ARG_OF_PERICENTER":232.1445,"MEAN_ANOMALY":127.9307,"EPHEMERIS_TYPE":0,"CLASSIFICATION_TYPE":"U","NORAD_CAT_ID":59638,"ELEMENT_SET_NO":999,"REV_AT_EPOCH":10469,"BSTAR":-8.742688e-6,"MEAN_MOTION_DOT":-5.02e-6,"MEAN_MOTION_DDOT":0},{"OBJECT_NAME":"TITAN 3C TRANSTAGE DEB","OBJECT_ID":"1965-082PT","EPOCH":"2026-03-09T13:23:41.116128","MEAN_MOTION":15.28908269,"ECCENTRICITY":0.00104371,"INCLINATION":32.0266,"RA_OF_ASC_NODE":255.1391,"ARG_OF_PERICENTER":172.8339,"MEAN_ANOMALY":187.2474,"EPHEMERIS_TYPE":0,"CLASSIFICATION_TYPE":"U","NORAD_CAT_ID":3462,"ELEMENT_SET_NO":999,"REV_AT_EPOCH":24824,"BSTAR":0.0004444037,"MEAN_MOTION_DOT":0.00012939,"MEAN_MOTION_DDOT":0}]
